start=new Date('2021-12-26T00:00:00.000Z').valueOf();
sats=[{"LAUNCH_DATE":"2020-01-29","TIME_SYSTEM":"UTC","APOAPSIS":"548.458","EPHEMERIS_TYPE":"0","ELEMENT_SET_NO":"999","MEAN_ELEMENT_THEORY":"SGP4","REF_FRAME":"TEME","SITE":"AFETR","MEAN_MOTION_DDOT":"0.0000000000000","PERIOD":"95.592","CLASSIFICATION_TYPE":"U","NORAD_CAT_ID":"45080","MEAN_ANOMALY":"302.8024","CENTER_NAME":"EARTH","MEAN_MOTION_DOT":"0.00000355","OBJECT_NAME":"STARLINK-1153","COUNTRY_CODE":"US","OBJECT_TYPE":"PAYLOAD","TLE_LINE2":"2 45080  53.0553 316.4987 0001781  57.3137 302.8024 15.06396385105417","ECCENTRICITY":"0.00017810","ARG_OF_PERICENTER":"57.3137","MEAN_MOTION":"15.06396385","SEMIMAJOR_AXIS":"6925.360","RA_OF_ASC_NODE":"316.4987","TLE_LINE1":"1 45080U 20006AN  21359.91300100  .00000355  00000-0  42718-4 0  9998","REV_AT_EPOCH":"10541","BSTAR":"0.00004271800000","OBJECT_ID":"2020-006AN","INCLINATION":"53.0553","RCS_SIZE":"LARGE","EPOCH":"2021-12-25T21:54:43.286400","DECAY_DATE":null,"FILE":"3250974","PERIAPSIS":"545.991","GP_ID":"192454984"},{"OBJECT_ID":"2020-006AP","BSTAR":"-0.00018715000000","INCLINATION":"53.0560","RCS_SIZE":"LARGE","EPOCH":"2021-12-25T15:00:42.230592","DECAY_DATE":null,"FILE":"3250974","GP_ID":"192454735","PERIAPSIS":"546.013","ARG_OF_PERICENTER":"51.9702","ECCENTRICITY":"0.00017000","RA_OF_ASC_NODE":"317.8028","SEMIMAJOR_AXIS":"6925.326","MEAN_MOTION":"15.06407464","REV_AT_EPOCH":"10537","TLE_LINE1":"1 45081U 20006AP  21359.62548878 -.00003069  00000-0 -18715-3 0  9999","MEAN_MOTION_DDOT":"0.0000000000000","PERIOD":"95.592","SITE":"AFETR","MEAN_MOTION_DOT":"-0.00003069","CLASSIFICATION_TYPE":"U","CENTER_NAME":"EARTH","NORAD_CAT_ID":"45081","MEAN_ANOMALY":"308.1440","OBJECT_TYPE":"PAYLOAD","TLE_LINE2":"2 45081  53.0560 317.8028 0001700  51.9702 308.1440 15.06407464105373","COUNTRY_CODE":"US","OBJECT_NAME":"STARLINK-1151","TIME_SYSTEM":"UTC","LAUNCH_DATE":"2020-01-29","ELEMENT_SET_NO":"999","APOAPSIS":"548.368","EPHEMERIS_TYPE":"0","REF_FRAME":"TEME","MEAN_ELEMENT_THEORY":"SGP4"},{"TIME_SYSTEM":"UTC","LAUNCH_DATE":"2020-01-29","ELEMENT_SET_NO":"999","APOAPSIS":"548.552","EPHEMERIS_TYPE":"0","REF_FRAME":"TEME","MEAN_ELEMENT_THEORY":"SGP4","PERIOD":"95.593","MEAN_MOTION_DDOT":"0.0000000000000","SITE":"AFETR","MEAN_MOTION_DOT":"-0.00001101","NORAD_CAT_ID":"45082","CENTER_NAME":"EARTH","MEAN_ANOMALY":"300.6566","CLASSIFICATION_TYPE":"U","TLE_LINE2":"2 45082  53.0528 316.6425 0001878  59.4608 300.6566 15.06387505105403","OBJECT_TYPE":"PAYLOAD","COUNTRY_CODE":"US","OBJECT_NAME":"STARLINK-1160","ARG_OF_PERICENTER":"59.4608","ECCENTRICITY":"0.00018780","SEMIMAJOR_AXIS":"6925.387","RA_OF_ASC_NODE":"316.6425","MEAN_MOTION":"15.06387505","REV_AT_EPOCH":"10540","TLE_LINE1":"1 45082U 20006AQ  21359.87982632 -.00001101  00000-0 -55021-4 0  9994","OBJECT_ID":"2020-006AQ","BSTAR":"-0.00005502100000","RCS_SIZE":"LARGE","INCLINATION":"53.0528","FILE":"3250974","EPOCH":"2021-12-25T21:06:56.994048","DECAY_DATE":null,"GP_ID":"192455986","PERIAPSIS":"545.951"},{"SEMIMAJOR_AXIS":"6925.320","MEAN_MOTION":"15.06409300","RA_OF_ASC_NODE":"337.7064","ECCENTRICITY":"0.00015730","ARG_OF_PERICENTER":"55.4990","TLE_LINE1":"1 45083U 20006AR  21359.64572600 -.00009239  00000-0 -60197-3 0  9999","REV_AT_EPOCH":"10509","RCS_SIZE":"LARGE","INCLINATION":"53.0552","BSTAR":"-0.00060197000000","OBJECT_ID":"2020-006AR","PERIAPSIS":"546.096","GP_ID":"192455735","FILE":"3250974","EPOCH":"2021-12-25T15:29:50.726400","DECAY_DATE":null,"LAUNCH_DATE":"2020-01-29","TIME_SYSTEM":"UTC","MEAN_ELEMENT_THEORY":"SGP4","REF_FRAME":"TEME","EPHEMERIS_TYPE":"0","APOAPSIS":"548.274","ELEMENT_SET_NO":"999","SITE":"AFETR","PERIOD":"95.592","MEAN_MOTION_DDOT":"0.0000000000000","OBJECT_NAME":"STARLINK-1190","COUNTRY_CODE":"US","TLE_LINE2":"2 45083  53.0552 337.7064 0001573  55.4990 304.6148 15.06409300105099","OBJECT_TYPE":"PAYLOAD","CENTER_NAME":"EARTH","NORAD_CAT_ID":"45083","MEAN_ANOMALY":"304.6148","CLASSIFICATION_TYPE":"U","MEAN_MOTION_DOT":"-0.00009239"},{"PERIOD":"95.592","MEAN_MOTION_DDOT":"0.0000000000000","SITE":"AFETR","TLE_LINE2":"2 45084  53.0555 296.5912 0001856  53.0227 307.0932 15.06396308105695","OBJECT_TYPE":"PAYLOAD","COUNTRY_CODE":"US","OBJECT_NAME":"STARLINK-1173","MEAN_MOTION_DOT":"0.00000202","NORAD_CAT_ID":"45084","CENTER_NAME":"EARTH","MEAN_ANOMALY":"307.0932","CLASSIFICATION_TYPE":"U","TIME_SYSTEM":"UTC","LAUNCH_DATE":"2020-01-29","REF_FRAME":"TEME","MEAN_ELEMENT_THEORY":"SGP4","ELEMENT_SET_NO":"999","APOAPSIS":"548.510","EPHEMERIS_TYPE":"0","RCS_SIZE":"LARGE","INCLINATION":"53.0555","OBJECT_ID":"2020-006AS","BSTAR":"0.00003249100000","GP_ID":"192454485","PERIAPSIS":"545.940","FILE":"3250974","EPOCH":"2021-12-25T21:25:31.371744","DECAY_DATE":null,"RA_OF_ASC_NODE":"296.5912","SEMIMAJOR_AXIS":"6925.360","MEAN_MOTION":"15.06396308","ARG_OF_PERICENTER":"53.0227","ECCENTRICITY":"0.00018560","REV_AT_EPOCH":"10569","TLE_LINE1":"1 45084U 20006AS  21359.89272421  .00000202  00000-0  32491-4 0  9991"},{"REV_AT_EPOCH":"10568","TLE_LINE1":"1 45085U 20006AT  21359.82269903 -.00000281  00000-0  73640-7 0  9998","ARG_OF_PERICENTER":"55.3875","ECCENTRICITY":"0.00019970","SEMIMAJOR_AXIS":"6925.364","RA_OF_ASC_NODE":"296.8956","MEAN_MOTION":"15.06394987","EPOCH":"2021-12-25T19:44:41.196192","DECAY_DATE":null,"FILE":"3250974","GP_ID":"192455235","PERIAPSIS":"545.846","OBJECT_ID":"2020-006AT","BSTAR":"0.00000007364000","INCLINATION":"53.0540","RCS_SIZE":"LARGE","ELEMENT_SET_NO":"999","APOAPSIS":"548.612","EPHEMERIS_TYPE":"0","REF_FRAME":"TEME","MEAN_ELEMENT_THEORY":"SGP4","TIME_SYSTEM":"UTC","LAUNCH_DATE":"2020-01-29","MEAN_MOTION_DOT":"-0.00000281","CLASSIFICATION_TYPE":"U","NORAD_CAT_ID":"45085","MEAN_ANOMALY":"304.7302","CENTER_NAME":"EARTH","OBJECT_TYPE":"PAYLOAD","TLE_LINE2":"2 45085  53.0540 296.8956 0001997  55.3875 304.7302 15.06394987105686","OBJECT_NAME":"STARLINK-1179","COUNTRY_CODE":"US","MEAN_MOTION_DDOT":"0.0000000000000","PERIOD":"95.592","SITE":"AFETR"},{"MEAN_MOTION_DDOT":"0.0000000000000","PERIOD":"95.519","SITE":"AFETR","OBJECT_TYPE":"PAYLOAD","TLE_LINE2":"2 45086  53.0026 295.3716 0001273  80.3476 279.7657 15.07556139105578","COUNTRY_CODE":"US","OBJECT_NAME":"STARLINK-1181","MEAN_MOTION_DOT":"0.00007633","CLASSIFICATION_TYPE":"U","NORAD_CAT_ID":"45086","MEAN_ANOMALY":"279.7657","CENTER_NAME":"EARTH","TIME_SYSTEM":"UTC","LAUNCH_DATE":"2020-01-29","REF_FRAME":"TEME","MEAN_ELEMENT_THEORY":"SGP4","ELEMENT_SET_NO":"999","APOAPSIS":"544.554","EPHEMERIS_TYPE":"0","INCLINATION":"53.0026","RCS_SIZE":"LARGE","OBJECT_ID":"2020-006AU","BSTAR":"0.00051457000000","GP_ID":"192426774","PERIAPSIS":"542.791","EPOCH":"2021-12-25T13:23:53.693376","DECAY_DATE":null,"FILE":"3250775","SEMIMAJOR_AXIS":"6921.807","MEAN_MOTION":"15.07556139","RA_OF_ASC_NODE":"295.3716","ARG_OF_PERICENTER":"80.3476","ECCENTRICITY":"0.00012730","REV_AT_EPOCH":"10557","TLE_LINE1":"1 45086U 20006AU  21359.55826034  .00007633  00000-0  51457-3 0  9998"},{"REF_FRAME":"TEME","MEAN_ELEMENT_THEORY":"SGP4","ELEMENT_SET_NO":"999","APOAPSIS":"548.526","EPHEMERIS_TYPE":"0","TIME_SYSTEM":"UTC","LAUNCH_DATE":"2020-01-29","TLE_LINE2":"2 45087  53.0544 298.1552 0001859  56.3613 303.7553 15.06391676105642","OBJECT_TYPE":"PAYLOAD","COUNTRY_CODE":"US","OBJECT_NAME":"STARLINK-1185","MEAN_MOTION_DOT":"-0.00000169","CENTER_NAME":"EARTH","NORAD_CAT_ID":"45087","MEAN_ANOMALY":"303.7553","CLASSIFICATION_TYPE":"U","PERIOD":"95.593","MEAN_MOTION_DDOT":"0.0000000000000","SITE":"AFETR","REV_AT_EPOCH":"10564","TLE_LINE1":"1 45087U 20006AV  21359.54255706 -.00000169  00000-0  75765-5 0  9998","SEMIMAJOR_AXIS":"6925.374","RA_OF_ASC_NODE":"298.1552","MEAN_MOTION":"15.06391676","ARG_OF_PERICENTER":"56.3613","ECCENTRICITY":"0.00018590","GP_ID":"192425522","PERIAPSIS":"545.952","FILE":"3250775","DECAY_DATE":null,"EPOCH":"2021-12-25T13:01:16.929984","RCS_SIZE":"LARGE","INCLINATION":"53.0544","OBJECT_ID":"2020-006AV","BSTAR":"0.00000757650000"},{"ELEMENT_SET_NO":"999","APOAPSIS":"548.429","EPHEMERIS_TYPE":"0","REF_FRAME":"TEME","MEAN_ELEMENT_THEORY":"SGP4","TIME_SYSTEM":"UTC","LAUNCH_DATE":"2020-01-29","MEAN_MOTION_DOT":"0.00001476","CLASSIFICATION_TYPE":"U","MEAN_ANOMALY":"303.9116","NORAD_CAT_ID":"45088","CENTER_NAME":"EARTH","OBJECT_TYPE":"PAYLOAD","TLE_LINE2":"2 45088  53.0547 296.5848 0001763  56.2041 303.9116 15.06401921105691","COUNTRY_CODE":"US","OBJECT_NAME":"STARLINK-1183","MEAN_MOTION_DDOT":"0.0000000000000","PERIOD":"95.592","SITE":"AFETR","REV_AT_EPOCH":"10569","TLE_LINE1":"1 45088U 20006AW  21359.89640783  .00001476  00000-0  11796-3 0  9993","ARG_OF_PERICENTER":"56.2041","ECCENTRICITY":"0.00017630","MEAN_MOTION":"15.06401921","SEMIMAJOR_AXIS":"6925.343","RA_OF_ASC_NODE":"296.5848","DECAY_DATE":null,"EPOCH":"2021-12-25T21:30:49.636512","FILE":"3250974","GP_ID":"192454985","PERIAPSIS":"545.987","OBJECT_ID":"2020-006AW","BSTAR":"0.00011796000000","INCLINATION":"53.0547","RCS_SIZE":"LARGE"},{"REV_AT_EPOCH":"10569","TLE_LINE1":"1 45089U 20006AX  21359.82911628 -.00001233  00000-0 -63896-4 0  9998","ARG_OF_PERICENTER":"65.8835","ECCENTRICITY":"0.00015140","SEMIMAJOR_AXIS":"6925.364","RA_OF_ASC_NODE":"296.8347","MEAN_MOTION":"15.06394968","EPOCH":"2021-12-25T19:53:55.646592","DECAY_DATE":null,"FILE":"3250974","GP_ID":"192454736","PERIAPSIS":"546.180","OBJECT_ID":"2020-006AX","BSTAR":"-0.00006389600000","INCLINATION":"53.0552","RCS_SIZE":"LARGE","ELEMENT_SET_NO":"999","APOAPSIS":"548.277","EPHEMERIS_TYPE":"0","REF_FRAME":"TEME","MEAN_ELEMENT_THEORY":"SGP4","TIME_SYSTEM":"UTC","LAUNCH_DATE":"2020-01-29","MEAN_MOTION_DOT":"-0.00001233","CLASSIFICATION_TYPE":"U","NORAD_CAT_ID":"45089","MEAN_ANOMALY":"294.2313","CENTER_NAME":"EARTH","OBJECT_TYPE":"PAYLOAD","TLE_LINE2":"2 45089  53.0552 296.8347 0001514  65.8835 294.2313 15.06394968105699","COUNTRY_CODE":"US","OBJECT_NAME":"STARLINK-1136","MEAN_MOTION_DDOT":"0.0000000000000","PERIOD":"95.592","SITE":"AFETR"}];
